IRIDIUM 36              
1 24967U 97056C   24300.38475079  .00001452  00000+0  48230-3 0  9998
2 24967  86.3919 271.1725 0002528  85.0445 275.1041 14.37149301418639
IRIDIUM 39              
1 25042U 97069D   24300.77152030  .00001887  00000+0  49678-3 0  9998
2 25042  86.3878 311.2237 0018500  13.5448 346.6249 14.48504159415424
IRIDIUM 38              
1 25043U 97069E   24300.48870265  .00001155  00000+0  37846-3 0  9996
2 25043  86.3956 331.5057 0003692 116.6156 243.5421 14.37637447412377
IRIDIUM 42              
1 25077U 97077A   24300.48921860  .00001058  00000+0  35847-3 0  9991
2 25077  86.3974 337.3857 0002532 107.2039 252.9435 14.35909767407653
IRIDIUM 44              
1 25078U 97077B   24300.79429384  .00001370  00000+0  43111-3 0  9990
2 25078  86.3932 319.8037 0004071  83.6775 276.4887 14.39759074410145
IRIDIUM 45              
1 25104U 97082A   24300.54672912  .00026547  00000+0  12569-2 0  9991
2 25104  86.3683 160.2743 0145877 118.9902 242.6048 15.10168144416630
IRIDIUM 24              
1 25105U 97082B   24300.78743925  .00001304  00000+0  39464-3 0  9999
2 25105  86.3967 179.2032 0013016 122.4636 237.7824 14.41596866409830
IRIDIUM 51              
1 25262U 98018A   24300.14708231  .00035996  00000+0  13383-2 0  9999
2 25262  86.3962 169.8684 0128372  57.6759 303.6838 15.19869657411247
